STARLINK-5855
1 55917U 23037D   24101.18682321  .00015275  00000+0  10045-2 0  9992
2 55917  70.0005 261.0416 0004013 236.1279 123.9504 15.07654435 59311
STARLINK-5675
1 55340U 23013K   24101.43693762 -.00072571  00000+0 -53857-2 0  9997
2 55340  43.0022 134.4820 0001147 266.9293  93.1418 15.02725465 67109
STARLINK-1735
1 46565U 20070AK  24101.13743760  .00005683  00000+0  39994-3 0  9992
2 46565  53.0550  52.5350 0001560  97.8251 262.2915 15.06415188194190
STARLINK-4213
1 52872U 22062AU  24100.86862360  .00000634  00000+0  57908-4 0  9997
2 52872  53.2156 271.2204 0001447  88.8282 271.2876 15.08844127100563
STARLINK-5485
1 57261U 23094AV  24100.75138996  .00001238  00000+0  10671-3 0  9995
2 57261  43.0050 227.9820 0001126 268.9403  91.1311 15.02535872 41983
STARLINK-4616
1 53734U 22107AL  24101.12895875  .00004691  00000+0  31254-3 0  9994
2 53734  53.2154 150.1554 0001191  94.9522 265.1606 15.08849684 88496
STARLINK-5614
1 55756U 23028R   24101.57305634  .00001103  00000+0  10017-3 0  9990
2 55756  70.0007 204.4697 0003362 268.5049  91.5725 14.98339715 61471
STARLINK-3282
1 50177U 21125X   24101.52869605  .00014542  00000+0  92932-3 0  9993
2 50177  53.2147 143.2842 0001377  83.8669 276.2480 15.08862348130712
STARLINK-30907
1 58352U 23177B   24101.22870598  .00002703  00000+0  21506-3 0  9990
2 58352  43.0007 187.2890 0001255 288.3439  71.7267 15.02545665 23154
STARLINK-31555
1 59351U 24060D   24101.58335648 -.00972408  00000+0 -59852-2 0  9997
2 59351  43.0012 283.6031 0001440 266.6928 357.0154 15.78836934  2861
STARLINK-2454
1 48116U 21027AA  24101.18581210  .00001498  00000+0  11944-3 0  9999
2 48116  53.0542  67.3202 0001451  89.5586 270.5570 15.06410878166732
STARLINK-3198
1 49763U 21115AR  24101.52776240  .00001278  00000+0  98349-4 0  9994
2 49763  53.2200  33.2888 0001382  74.7491 285.3654 15.08854225131391
STARLINK-6359
1 57346U 23099U   24101.35604129  .00002149  00000+0  17416-3 0  9993
2 57346  43.0034  83.1269 0001191 272.0414  88.0292 15.02531563 41816
STARLINK-2145
1 48555U 21041C   24101.54613778  .00001965  00000+0  15079-3 0  9999
2 48555  53.0567  35.7037 0001619  85.6622 274.4552 15.06395399160282
STARLINK-31126
1 58675U 23211J   24100.91846745  .00000463  00000+0  27522-4 0  9995
2 58675  43.0050  65.8034 0000659 249.0938 110.9843 15.25917453 16832
STARLINK-4591
1 53607U 22104V   24101.38242266 -.00000653  00000+0 -22956-4 0  9994
2 53607  53.2168 133.9987 0001468  90.2575 269.8585 15.08834766 89575
STARLINK-6066
1 56105U 23046N   24101.14085424  .00000689  00000+0  66060-4 0  9992
2 56105  43.0060 354.5376 0001294 264.2772  95.7923 15.02535341 57524
STARLINK-3735
1 52116U 22029AE  24101.04385492  .00000274  00000+0  35288-4 0  9995
2 52116  53.2189 335.4627 0001361  68.0818 292.0319 15.08841083115312
STARLINK-1932
1 46770U 20074AH  24101.37893176  .00000702  00000+0  66007-4 0  9990
2 46770  53.0550 232.0065 0001240  84.9283 275.1847 15.06408419191220
STARLINK-1748
1 46570U 20070AQ  24100.92401965  .00026514  00000+0  72126-3 0  9992
2 46570  53.0271 341.6897 0003356 154.8113 205.3053 15.37367766195486
STARLINK-1335
1 45581U 20025BC  24101.36229161 -.00000058  00000+0  14980-4 0  9999
2 45581  53.0554 331.5299 0001563  88.5412 271.5756 15.06400041219659
STARLINK-30834
1 58151U 23166B   24101.58335648 -.00136853  00000+0 -50089-2 0  9999
2 58151  53.0887 220.2128 0001316  87.8285 326.1352 15.28088468 26324
STARLINK-4670
1 53744U 22107AW  24101.55118470  .00000517  00000+0  50582-4 0  9990
2 53744  53.2172 157.8078 0001500  98.9826 261.1336 15.08844967 88425
STARLINK-3250
1 49749U 21115AB  24101.22974925 -.00002096  00000+0 -11355-3 0  9997
2 49749  53.2199  44.8693 0001508  87.6648 272.4517 15.08862167131198
STARLINK-4253
1 53004U 22076U   24101.11055221  .00000013  00000+0  18937-4 0  9999
2 53004  53.2185 350.1637 0001351  82.4326 277.6820 15.08839886 97855
STARLINK-30316
1 57673U 23124L   24100.69868741  .00007710  00000+0  38145-3 0  9994
2 57673  53.1095 216.1304 0001147  80.0691 280.0434 15.18735516 36515
STARLINK-1279
1 45360U 20019A   24101.50419087 -.00000444  00000+0 -10914-4 0  9994
2 45360  53.0555  30.8904 0001183  87.9697 272.1427 15.06402353224907
STARLINK-3687
1 52110U 22029Y   24100.92977268  .00001898  00000+0  13733-3 0  9996
2 52110  53.2181 335.9752 0001661  97.4709 262.6472 15.08840601115295
STARLINK-5913
1 55937U 23037Z   24101.14377628 -.00000126  00000+0 -27919-5 0  9993
2 55937  70.0010 245.7806 0003173 269.2780  90.8015 14.98332169 59686
STARLINK-1956
1 47557U 21009K   24101.56640375 -.00000623  00000+0 -22929-4 0  9994
2 47557  53.0518 295.6117 0001804  91.0039 269.1157 15.06393576175894
STARLINK-31072
1 58599U 23200L   24101.11285398  .00084493  00000+0  30410-2 0  9995
2 58599  43.0052 358.1504 0005075 258.2854 101.7429 15.27614240 18622
STARLINK-3219
1 49724U 21115A   24101.21776200  .00000921  00000+0  75977-4 0  9999
2 49724  53.2206  44.9047 0001555 100.6041 259.5126 15.08839053131199
STARLINK-2133
1 47406U 21005BK  24101.53046665  .00000036  00000+0  21277-4 0  9993
2 47406  53.0513 285.7721 0001249  86.5594 273.5538 15.06393558178852
STARLINK-1066
1 44954U 20001AS  24101.00566610  .00006201  00000+0  43469-3 0  9998
2 44954  53.0539 203.1324 0000477 120.4296 239.6740 15.06407774235046
STARLINK-6062
1 56104U 23046M   24101.42008019  .00002241  00000+0  18090-3 0  9992
2 56104  43.0048 353.1936 0001318 263.7688  96.3004 15.02540299 57562
STARLINK-5291
1 55273U 23010E   24101.16023337  .00000916  00000+0  82850-4 0  9993
2 55273  70.0013   5.6737 0002818 266.2480  93.8357 14.99141233 67836
